BY70-2                  
1 45857U 20042B   24148.51728728  .00094576  00000+0  36123-2 0  9993
2 45857  97.9070 240.7743 0010464 260.3719  99.6336 15.26190289211398
SALSAT                  
1 46495U 20068K   24147.84630398  .00007483  00000+0  42842-3 0  9997
2 46495  97.8154 106.6086 0014807  34.0841 326.1337 15.12846288201082
UVSQ-SAT                
1 47438U 21006AB  24148.14488606  .00047121  00000+0  96550-3 0  9993
2 47438  97.3269 208.3756 0005231 273.1525  86.9125 15.45922087185481
LEDSAT                  
1 49069U 21073D   24148.44473359  .00013997  00000+0  57485-3 0  9999
2 49069  97.4377 219.7239 0018724   0.7290 359.3971 15.24155352153290
XW-3 (CAS-9)            
1 50466U 21131B   24148.48379831  .00000812  00000+0  27397-3 0  9992
2 50466  98.5277 233.6499 0004390 172.6566 187.4687 14.39622703127026
TEVEL-3                 
1 50988U 22002E   24148.47539954  .00114866  00000+0  13058-2 0  9995
2 50988  97.3776 223.3836 0001957 165.4718 194.6597 15.61931697131815
TEVEL-8                 
1 50989U 22002F   24148.45091006  .00126212  00000+0  14428-2 0  9995
2 50989  97.3802 223.4496 0002136 165.0345 195.0977 15.61747985131802
TEVEL-5                 
1 50998U 22002Q   24148.47980260  .00166680  00000+0  15166-2 0  9999
2 50998  97.3761 224.6741 0001800 203.2080 156.9099 15.67417009131909
TEVEL-6                 
1 50999U 22002R   24148.48700881  .00153516  00000+0  14130-2 0  9994
2 50999  97.3755 224.6447 0001705 202.4307 157.6879 15.67172063131905
TEVEL-1                 
1 51013U 22002AF  24148.50420202  .00117117  00000+0  13419-2 0  9997
2 51013  97.3770 223.2731 0001660 166.0175 194.1129 15.61719851131819
TEVEL-7                 
1 51062U 22002CG  24148.50291566  .00117897  00000+0  13390-2 0  9993
2 51062  97.3787 223.4795 0001627 168.5895 191.5400 15.61946114131819
TEVEL-4                 
1 51063U 22002CH  24148.47832978  .00124951  00000+0  14463-2 0  9999
2 51063  97.3788 223.3519 0001685 160.3877 199.7446 15.61428290131807
TEVEL-2                 
1 51069U 22002CP  24148.47311289  .00114489  00000+0  12994-2 0  9994
2 51069  97.3771 223.3490 0001868 166.8560 193.2747 15.61975198131814
GREENCUBE               
1 53106U 22080B   24143.44283041 -.00000003  00000+0  00000+0 0  9999
2 53106  70.1379 201.4638 0007708 112.7350 247.4125  6.42557493 43613
MIET-AIS (RS28S)        
1 53377U 22096H   24148.08289647  .00544906  12461-3  13659-2 0  9998
2 53377  97.3836  68.9087 0007964 147.6460 212.5306 15.95648934101134
KAI-1 (RS26S)           
1 53378U 22096J   24148.52908341  .00084110  00000+0  80473-3 0  9994
2 53378  97.3962  66.3216 0004982 108.4173 251.7629 15.66419087100993
ISOI (RS19S)            
1 53381U 22096M   24148.53570802  .00771448  29091-3  12953-2 0  9995
2 53381  97.3783  70.4536 0008928 159.4623 200.7017 16.02804517101273
SIREN (RS30S)           
1 53384U 22096Q   24148.08138752  .00209955  00000+0  11408-2 0  9990
2 53384  97.3891  67.8928 0006528 136.4437 223.7347 15.79390934101067
CAS-5A (FO-118)         
1 54684U 22167C   24148.52806355  .00020954  00000+0  74374-3 0  9995
2 54684  97.6039 292.8876 0010727 214.6831 145.3710 15.29024609 81140
STRATOSAT-TK 1 (RS52S)  
1 57167U 23091B   24148.50716056  .00012579  00000+0  73858-3 0  9997
2 57167  97.6117 201.6426 0015972 185.5803 174.5252 15.11753418 50438
UMKA 1 (RS40S)          
1 57172U 23091G   24148.48881754  .00005468  00000+0  36513-3 0  9994
2 57172  97.6126 200.7458 0016961 187.4837 172.6140 15.07309567 50371
CUBESX-HSE 3 (RS42S)    
1 57178U 23091N   24148.46251230  .00006287  00000+0  40503-3 0  9992
2 57178  97.6161 201.0940 0017738 181.1800 178.9390 15.08561937 50389
MONITOR-4 (RS57S)       
1 57182U 23091S   24148.51015527  .00006266  00000+0  40857-3 0  9999
2 57182  97.6141 200.9803 0018037 183.1704 176.9413 15.08118199 50388
MONITOR-2 (RS39S)       
1 57184U 23091U   24148.45432410  .00004291  00000+0  28658-3 0  9999
2 57184  97.6152 201.0762 0014569 175.4705 184.6658 15.07453208 50388
SVYATOBOR 1 (RS60S)     
1 57187U 23091X   24148.43094005  .00007284  00000+0  46503-3 0  9998
2 57187  97.6155 201.4196 0014168 173.6111 186.5301 15.08889738 50406
VIZARD-METEO (RS38S)    
1 57189U 23091Z   24148.47127677  .00007316  00000+0  45079-3 0  9999
2 57189  97.6151 201.7948 0013274 169.6622 190.4882 15.10196793 50437
NANOZOND 1 (RS49S)      
1 57190U 23091AA  24148.44014084  .00012101  00000+0  69652-3 0  9996
2 57190  97.6119 202.1842 0011715 174.8122 185.3232 15.12531823 50466
POLYTECH-UNIVERSE 3 (R*)
1 57191U 23091AB  24148.45787907  .00004390  00000+0  29315-3 0  9992
2 57191  97.6121 200.7761 0019491 193.7949 166.2748 15.07377124 50376
UTMN 2 (RS27S)          
1 57203U 23091AP  24148.45573224  .00006896  00000+0  43042-3 0  9997
2 57203  97.6145 201.6592 0013576 170.6237 189.5248 15.09741828 50427
ARCCUBE 1 (RS25S)       
1 57205U 23091AR  24148.43211906  .00014292  00000+0  79907-3 0  9991
2 57205  97.6093 202.2578 0011838 176.1504 183.9820 15.13532115 50470
KUZGTU 1 (RS47S)        
1 57217U 23091AV  24148.53560532  .00006564  00000+0  42415-3 0  9994
2 57217  97.6138 201.0436 0017603 182.1389 177.9767 15.08436541 50391
HADES-D (SO-121)        
1 58567U 23174CY  24148.17691423  .00038431  00000+0  14107-2 0  9993
2 58567  97.4538 223.8723 0011362 294.2050  65.8001 15.27782105 30574
